STARLINK-1587
1 26157C 20057AS  21325.09742997 -.00016355  00000-0 -10957-2 0  3256
2 26157  53.0527 122.7842 0001383  82.0173 312.9272 15.06418476    18
